LUR-1                   
1 60506U 24149AQ  26068.79566301  .00009121  00000+0  32985-3 0  9998
2 60506  97.3790 148.4255 0002777 309.1571  50.9421 15.28658648 86785
STARLINK-36430          
1 67326U 26002X   26068.10100734  .00029345  00000+0  10714-2 0  9999
2 67326  43.0007 328.1775 0003426 244.1670 115.8829 15.27585781 11153
